[{"OBJECT_NAME":"ICEYE-X31","OBJECT_ID":"2023-174AJ","EPOCH":"2026-03-09T23:06:20.433600","MEAN_MOTION":15.30950809,"ECCENTRICITY":0.00015021,"INCLINATION":97.3851,"RA_OF_ASC_NODE":144.9524,"ARG_OF_PERICENTER":332.6589,"MEAN_ANOMALY":27.4572,"EPHEMERIS_TYPE":0,"CLASSIFICATION_TYPE":"U","NORAD_CAT_ID":58288,"ELEMENT_SET_NO":999,"REV_AT_EPOCH":12955,"BSTAR":0.00066288467,"MEAN_MOTION_DOT":0.00019777,"MEAN_MOTION_DDOT":0},{"OBJECT_NAME":"STARLINK-35380","OBJECT_ID":"2025-224Z","EPOCH":"2026-03-09T03:59:40.174080","MEAN_MOTION":15.30197967,"ECCENTRICITY":0.00011702,"INCLINATION":53.1623,"RA_OF_ASC_NODE":13.8081,"ARG_OF_PERICENTER":92.0009,"MEAN_ANOMALY":268.1126,"EPHEMERIS_TYPE":0,"CLASSIFICATION_TYPE":"U","NORAD_CAT_ID":65905,"ELEMENT_SET_NO":999,"REV_AT_EPOCH":2474,"BSTAR":0.00025831571,"MEAN_MOTION_DOT":7.298e-5,"MEAN_MOTION_DDOT":0}]
